ONEWEB-0349             
1 49281U 21090C   25023.53606358 -.00000230  00000+0 -59820-3 0  9997
2 49281  87.9260  15.8463 0001707  88.2778 271.8551 13.20770661163844
ONEWEB-0353             
1 49282U 21090D   25023.52602134  .00000119  00000+0  28675-3 0  9993
2 49282  87.8988  31.0443 0001594  98.5255 261.6055 13.14502803161913
ONEWEB-0356             
1 49283U 21090E   25022.47389779  .00000109  00000+0  23691-3 0  9996
2 49283  87.9259  16.0502 0001396  54.9188 305.2076 13.20773612162415
ONEWEB-0358             
1 49284U 21090F   25022.50390286  .00000015  00000+0  49708-5 0  9991
2 49284  87.9259  16.0330 0001834  80.0415 280.0925 13.20774382163144
ONEWEB-0359             
1 49285U 21090G   25022.50073230  .00000040  00000+0  67570-4 0  9993
2 49285  87.9255  16.0482 0002197  82.3033 277.8350 13.20773114163129
ONEWEB-0360             
1 49286U 21090H   25022.49125694  .00000000  00000+0 -32026-4 0  9999
2 49286  87.9256  16.0555 0001960  85.5959 274.5398 13.20769819162437
ONEWEB-0361             
1 49287U 21090J   25023.45715515  .00000133  00000+0  29430-3 0  9994
2 49287  87.9260  15.8582 0001680  83.7753 276.3572 13.20773751163841
ONEWEB-0362             
1 49288U 21090K   25023.53673770  .00000077  00000+0  15894-3 0  9996
2 49288  87.9147  46.3077 0002073  96.9058 263.2310 13.19723988160516
